CCSDS_OMM_VERS = 2.0
CREATION_DATE  = 
ORIGINATOR     = 

OBJECT_NAME    = KNACKSAT-2
OBJECT_ID      = 1998-067XZ
CENTER_NAME    = EARTH
REF_FRAME      = TEME
TIME_SYSTEM    = UTC
MEAN_ELEMENT_THEORY = SGP/SGP4

EPOCH          = 2026-03-16T07:04:40.799424
MEAN_MOTION    = 15.52410103
ECCENTRICITY   = .0009621
INCLINATION    = 51.6314
RA_OF_ASC_NODE = 39.0149
ARG_OF_PERICENTER = 209.1320
MEAN_ANOMALY   = 150.9135

EPHEMERIS_TYPE = 0
CLASSIFICATION_TYPE = U
NORAD_CAT_ID   = 67683
ELEMENT_SET_NO = 999
REV_AT_EPOCH   = 581
BSTAR          = .65165022E-3
MEAN_MOTION_DOT = .40336E-3
MEAN_MOTION_DDOT = 0

CCSDS_OMM_VERS = 2.0
CREATION_DATE  = 
ORIGINATOR     = 

OBJECT_NAME    = GXIBA-1
OBJECT_ID      = 1998-067YA
CENTER_NAME    = EARTH
REF_FRAME      = TEME
TIME_SYSTEM    = UTC
MEAN_ELEMENT_THEORY = SGP/SGP4

EPOCH          = 2026-03-16T04:35:54.035232
MEAN_MOTION    = 15.55463246
ECCENTRICITY   = .00116356
INCLINATION    = 51.6304
RA_OF_ASC_NODE = 39.0750
ARG_OF_PERICENTER = 198.6199
MEAN_ANOMALY   = 161.4368

EPHEMERIS_TYPE = 0
CLASSIFICATION_TYPE = U
NORAD_CAT_ID   = 67684
ELEMENT_SET_NO = 999
REV_AT_EPOCH   = 580
BSTAR          = .11727397E-2
MEAN_MOTION_DOT = .82105E-3
MEAN_MOTION_DDOT = 0

CCSDS_OMM_VERS = 2.0
CREATION_DATE  = 
ORIGINATOR     = 

OBJECT_NAME    = CORAL
OBJECT_ID      = 1998-067YB
CENTER_NAME    = EARTH
REF_FRAME      = TEME
TIME_SYSTEM    = UTC
MEAN_ELEMENT_THEORY = SGP/SGP4

EPOCH          = 2026-03-16T03:50:31.556544
MEAN_MOTION    = 15.52822116
ECCENTRICITY   = .00115416
INCLINATION    = 51.6320
RA_OF_ASC_NODE = 39.6149
ARG_OF_PERICENTER = 205.2208
MEAN_ANOMALY   = 154.8220

EPHEMERIS_TYPE = 0
CLASSIFICATION_TYPE = U
NORAD_CAT_ID   = 67685
ELEMENT_SET_NO = 999
REV_AT_EPOCH   = 579
BSTAR          = .68769678E-3
MEAN_MOTION_DOT = .43289E-3
MEAN_MOTION_DDOT = 0

CCSDS_OMM_VERS = 2.0
CREATION_DATE  = 
ORIGINATOR     = 

OBJECT_NAME    = ISS OBJECT YC
OBJECT_ID      = 1998-067YC
CENTER_NAME    = EARTH
REF_FRAME      = TEME
TIME_SYSTEM    = UTC
MEAN_ELEMENT_THEORY = SGP/SGP4

EPOCH          = 2026-03-16T03:38:56.117760
MEAN_MOTION    = 15.53500911
ECCENTRICITY   = .00083985
INCLINATION    = 51.6318
RA_OF_ASC_NODE = 39.5627
ARG_OF_PERICENTER = 174.2114
MEAN_ANOMALY   = 185.8975

EPHEMERIS_TYPE = 0
CLASSIFICATION_TYPE = U
NORAD_CAT_ID   = 67686
ELEMENT_SET_NO = 999
REV_AT_EPOCH   = 579
BSTAR          = .81961393E-3
MEAN_MOTION_DOT = .52977E-3
MEAN_MOTION_DDOT = 0

CCSDS_OMM_VERS = 2.0
CREATION_DATE  = 
ORIGINATOR     = 

OBJECT_NAME    = LEOPARD
OBJECT_ID      = 1998-067YD
CENTER_NAME    = EARTH
REF_FRAME      = TEME
TIME_SYSTEM    = UTC
MEAN_ELEMENT_THEORY = SGP/SGP4

EPOCH          = 2026-03-16T07:00:08.685216
MEAN_MOTION    = 15.52608602
ECCENTRICITY   = .00081416
INCLINATION    = 51.6318
RA_OF_ASC_NODE = 38.9958
ARG_OF_PERICENTER = 178.3459
MEAN_ANOMALY   = 181.7560

EPHEMERIS_TYPE = 0
CLASSIFICATION_TYPE = U
NORAD_CAT_ID   = 67687
ELEMENT_SET_NO = 999
REV_AT_EPOCH   = 573
BSTAR          = .65341289E-3
MEAN_MOTION_DOT = .4072E-3
MEAN_MOTION_DDOT = 0

CCSDS_OMM_VERS = 2.0
CREATION_DATE  = 
ORIGINATOR     = 

OBJECT_NAME    = ISS OBJECT YE
OBJECT_ID      = 1998-067YE
CENTER_NAME    = EARTH
REF_FRAME      = TEME
TIME_SYSTEM    = UTC
MEAN_ELEMENT_THEORY = SGP/SGP4

EPOCH          = 2026-03-16T03:44:12.938784
MEAN_MOTION    = 15.53188752
ECCENTRICITY   = .00082569
INCLINATION    = 51.6318
RA_OF_ASC_NODE = 39.5870
ARG_OF_PERICENTER = 175.0661
MEAN_ANOMALY   = 185.0412

EPHEMERIS_TYPE = 0
CLASSIFICATION_TYPE = U
NORAD_CAT_ID   = 67688
ELEMENT_SET_NO = 999
REV_AT_EPOCH   = 571
BSTAR          = .75838472E-3
MEAN_MOTION_DOT = .48397E-3
MEAN_MOTION_DDOT = 0

CCSDS_OMM_VERS = 2.0
CREATION_DATE  = 
ORIGINATOR     = 

OBJECT_NAME    = CREW DRAGON 12
OBJECT_ID      = 2026-031A
CENTER_NAME    = EARTH
REF_FRAME      = TEME
TIME_SYSTEM    = UTC
MEAN_ELEMENT_THEORY = SGP/SGP4

EPOCH          = 2026-03-16T03:51:18.372384
MEAN_MOTION    = 15.48306205
ECCENTRICITY   = .00063428
INCLINATION    = 51.6332
RA_OF_ASC_NODE = 40.3661
ARG_OF_PERICENTER = 195.9803
MEAN_ANOMALY   = 164.0986

EPHEMERIS_TYPE = 0
CLASSIFICATION_TYPE = U
NORAD_CAT_ID   = 67796
ELEMENT_SET_NO = 999
REV_AT_EPOCH   = 55723
BSTAR          = .16433499E-3
MEAN_MOTION_DOT = .8402E-4
MEAN_MOTION_DDOT = 0

