KNACKSAT-2              
1 67683U 98067XZ  26075.29491666  .00040336  00000+0  65165-3 0  9994
2 67683  51.6314  39.0149 0009621 209.1320 150.9135 15.52410103  5813
GXIBA-1                 
1 67684U 98067YA  26075.19159763  .00082105  00000+0  11727-2 0  9997
2 67684  51.6304  39.0750 0011635 198.6199 161.4368 15.55463246  5808
CORAL                   
1 67685U 98067YB  26075.16008746  .00043289  00000+0  68770-3 0  9990
2 67685  51.6320  39.6149 0011541 205.2208 154.8220 15.52822116  5790
ISS OBJECT YC           
1 67686U 98067YC  26075.15203840  .00052977  00000+0  81961-3 0  9993
2 67686  51.6318  39.5627 0008398 174.2114 185.8975 15.53500911  5793
LEOPARD                 
1 67687U 98067YD  26075.29176719  .00040720  00000+0  65341-3 0  9990
2 67687  51.6318  38.9958 0008141 178.3459 181.7560 15.52608602  5731
ISS OBJECT YE           
1 67688U 98067YE  26075.15570531  .00048397  00000+0  75838-3 0  9996
2 67688  51.6318  39.5870 0008256 175.0661 185.0412 15.53188752  5719
CREW DRAGON 12          
1 67796U 26031A   26075.16062931  .00008402  00000+0  16433-3 0  9998
2 67796  51.6332  40.3661 0006342 195.9803 164.0986 15.48306205557237
